OBJECT_NAME,OBJECT_ID,EPOCH,MEAN_MOTION,ECCENTRICITY,INCLINATION,RA_OF_ASC_NODE,ARG_OF_PERICENTER,MEAN_ANOMALY,EPHEMERIS_TYPE,CLASSIFICATION_TYPE,NORAD_CAT_ID,ELEMENT_SET_NO,REV_AT_EPOCH,BSTAR,MEAN_MOTION_DOT,MEAN_MOTION_DDOT
COSMOS 2058,1990-010A,2026-07-09T18:25:20.035200,15.12140458,.00078497,82.4673,287.0862,273.1545,86.8787,0,U,20465,999,96068,.89904823E-4,.1579E-4,0
SL-14 R/B,1990-010B,2026-07-10T07:13:02.809344,14.83661278,.0018208,82.5032,152.2384,254.6865,105.2338,0,U,20466,999,94666,.28010713E-4,.255E-5,0
SL-14 R/B,1990-018B,2026-07-09T05:18:55.427904,14.82231639,.00174122,82.5223,109.5139,55.2414,305.0437,0,U,20511,999,94058,.32342137E-4,.282E-5,0
HST,1990-037B,2026-07-09T08:57:17.717472,15.31019723,.0002017,28.4735,288.9155,48.5299,311.5470,0,U,20580,999,79197,.15120706E-3,.4895E-4,0
SL-16 R/B,1990-046B,2026-07-09T00:05:31.331040,14.15022786,.0012487,70.9983,43.1285,125.2782,234.9511,0,U,20625,999,86555,-.1418481E-5,-.5E-6,0
COSMOS 2084,1990-055A,2026-07-10T05:34:25.415904,15.06213089,.00074895,62.7903,277.4294,313.3457,46.7018,0,U,20663,999,95477,.94633466E-4,.1191E-4,0
SL-6 R/B(2),1990-055D,2026-07-09T23:41:07.137024,15.04074554,.0044299,62.7799,197.7866,8.2887,351.8933,0,U,20666,999,95658,.95242126E-4,.1143E-4,0
SL-8 R/B,1990-078B,2026-07-08T21:52:07.419936,14.93408823,.03445479,82.9023,141.9992,324.9410,32.9553,0,U,20775,999,82736,.46254958E-3,.16326E-3,0
SL-8 R/B,1991-006B,2026-07-10T02:36:06.045120,13.77508472,.00236663,82.9416,78.9815,54.0951,103.6954,0,U,21088,999,78092,.38416804E-4,.54E-6,0
OKEAN-3,1991-039A,2026-07-10T01:42:07.531200,15.05417870,.001202,82.5136,218.1885,274.0321,85.9532,0,U,21397,999,88344,.97532825E-4,.1429E-4,0
COSMOS 2151,1991-042A,2026-07-10T06:24:25.690464,15.00505369,.00124589,82.4977,325.4065,12.1803,347.9720,0,U,21422,999,88157,.86682893E-4,.112E-4,0
SL-14 R/B,1991-042B,2026-07-10T04:16:18.703200,14.81916373,.00165342,82.4936,105.3367,193.5129,166.5645,0,U,21423,999,87121,.23739738E-4,.212E-5,0
ERS-1,1991-050A,2026-07-09T16:26:40.890336,14.39530485,.00315534,98.7794,211.9326,198.2061,161.7999,0,U,21574,999,83328,.63975081E-4,.154E-5,0
ARIANE 40 R/B,1991-050F,2026-07-10T01:41:46.771872,14.42970155,.00043349,98.1864,238.5948,72.5548,287.6117,0,U,21610,999,83664,.57039232E-4,.149E-5,0
INTERCOSMOS 25,1991-086A,2026-07-10T01:23:27.058848,12.12235411,.14843161,82.6017,235.9699,213.0142,136.9149,0,U,21819,999,51151,.20442298E-3,.104E-4,0
SL-8 R/B,1992-008B,2026-07-09T16:34:31.251936,13.75982559,.00353586,82.9267,177.0557,151.6373,21.7909,0,U,21876,999,72619,.11466993E-3,.127E-5,0
SL-8 R/B,1992-020B,2026-07-10T03:12:09.859680,13.75550292,.00281875,82.9289,62.8117,318.2654,207.0612,0,U,21938,999,71796,.8080231E-5,.23E-6,0
USA 81,1992-023A,2026-07-09T13:24:53.107200,14.32403925,.00022291,85.0056,61.0934,66.9776,293.1651,0,U,21949,999,11223,.31648508E-4,.106E-5,0
COSMOS 2219,1992-076A,2026-07-09T06:15:18.546912,14.14110057,.00178747,71.0616,123.9288,6.9103,353.2263,0,U,22219,999,73556,-.20471525E-4,-.86E-6,0
SL-16 R/B,1992-076B,2026-07-10T06:00:28.425600,14.16875183,.00149833,71.0007,290.1978,268.4021,118.8885,0,U,22220,999,73919,.12539331E-3,.204E-5,0
COSMOS 2221,1992-080A,2026-07-09T16:06:48.632544,14.96593877,.00153803,82.5041,162.2222,137.2141,223.0281,0,U,22236,999,79903,.96601925E-4,.1129E-4,0
SL-16 R/B,1992-093B,2026-07-10T05:02:24.434592,14.15467002,.00025456,71.0224,107.0605,146.2385,213.8900,0,U,22285,999,73049,-.25133283E-4,-.97E-6,0
COSMOS 2228,1992-094A,2026-07-10T06:31:54.706080,14.97666428,.00160752,82.5190,119.9313,247.2399,112.7126,0,U,22286,999,79440,.99932589E-4,.1198E-4,0
SL-16 R/B,1993-016B,2026-07-09T15:03:00.065376,14.15311517,.00090311,71.0084,319.0751,148.0677,212.0995,0,U,22566,999,71942,-.25504394E-4,-.97E-6,0
COSMOS 2242,1993-024A,2026-07-10T07:25:01.926048,14.96975696,.00144108,82.5196,149.4212,250.7911,109.1753,0,U,22626,999,79873,.99768275E-4,.1175E-4,0
SL-16 R/B,1993-059B,2026-07-09T22:25:35.289408,14.17250961,.00163713,70.9907,113.3346,16.5636,343.6019,0,U,22803,999,69685,-.77318143E-4,-.204E-5,0
ARIANE 40 R/B,1993-061H,2026-07-10T02:36:54.839520,14.32917286,.00094464,98.4808,257.4887,282.7691,77.2438,0,U,22830,999,71163,.49112529E-4,.91E-6,0
COSMOS 2278,1994-023A,2026-07-10T05:33:47.955456,14.14393857,.00098839,71.0531,278.7111,213.1584,146.8921,0,U,23087,999,66213,-.72576996E-4,-.186E-5,0
SL-16 R/B,1994-023B,2026-07-09T08:59:58.729056,14.15024073,.00015317,70.9978,175.3346,148.8779,211.2434,0,U,23088,999,66330,-.43886463E-4,-.133E-5,0
SL-16 R/B,1994-074B,2026-07-09T13:03:13.335840,14.79521229,.00067092,97.6985,216.3325,171.5538,306.2325,0,U,23343,999,70526,.40867955E-4,.256E-5,0
